STARLINK-4723           
1 53797U 22111AA  26068.83101207  .00000434  00000+0  45329-4 0  9999
2 53797  53.2164 273.0518 0001367  89.5075 270.6074 15.08844385193703
LEMUR-2-KREMPEL-BRO2    
1 63353U 25061C   26068.86379735  .00007837  00000+0  44347-3 0  9993
2 63353  97.5616  45.5365 0017925 236.8576 123.0936 15.13192951 52586
